#aV2022  2 15  0  0  0.00000000     288 DD+AD WGS84 FIT  NGA
## 2197 172800.00000000   300.00000000 59625 0.0000000000000
+   32     1  2  3  4  5  6  7  8  9 10 11 12 13 14 15 16 17
+         18 19 20 21 22 23 24 25 26 27 28 29 30 31 32  0  0
+          0  0  0  0  0  0  0  0  0  0  0  0  0  0  0  0  0
+          0  0  0  0  0  0  0  0  0  0  0  0  0  0  0  0  0
+          0  0  0  0  0  0  0  0  0  0  0  0  0  0  0  0  0
++         2  2  2  2  2  2  2  2  2  2  2  2  2  2  2  2  2
++         2  2  2  2  2  2  2  2  2  2  2  2  2  2  2  0  0
++         0  0  0  0  0  0  0  0  0  0  0  0  0  0  0  0  0
++         0  0  0  0  0  0  0  0  0  0  0  0  0  0  0  0  0
++         0  0  0  0  0  0  0  0  0  0  0  0  0  0  0  0  0
%c cc cc ccc ccc cccc cccc cccc cccc ccccc ccccc ccccc ccccc
%c cc cc ccc ccc cccc cccc cccc cccc ccccc ccccc ccccc ccccc
%f  0.0000000  0.000000000  0.00000000000  0.000000000000000
%f  0.0000000  0.000000000  0.00000000000  0.000000000000000
%i    0    0    0    0      0      0      0      0         0
%i    0    0    0    0      0      0      0      0         0
/*      NGA, ST. LOUIS,MO.                                  
/*   EPHEMERIS COMPUTED FROM 2 DAYS OF DATA                 
/*   EPOCHA v7 SMOOTHER                                     
/*   G2139 IERS2010 SATIGS SATAPC                           
*  2022  2 15 18  5  0.00000000
P  1   2884.343956 -16338.887696 -20932.892673    430.713463                    
V  1  24135.138342  -9606.686278  11308.305923     -0.094841                    
P  2 -20614.913826  15979.389056   6016.689773   -650.914154                    
V  2  -7079.572959   1139.861704 -30555.898456     -0.007003                    
P  3  -7359.922964 -19401.784776 -16743.087462   -122.819377                    
V  3  17889.715506  11089.838835 -20735.894865     -0.172129                    
P  4    202.645531 -26081.244786   4784.564889   -189.367896                    
V  4   3597.712939  -5647.970907 -31047.340208      0.022489                    
P  5  -8711.884776  12420.949459  21640.629982    -71.540232                    
V  5 -23239.738028 -15379.547796   -375.954735     -0.013313                    
P  6 -24589.138598   4327.839437  -9100.257909    202.526123                    
V  6   9876.300594  -6348.976881 -29403.875743      0.119215                    
P  7 -14246.470818  -9828.291709  20648.998778    310.497277                    
V  7  22829.798773 -10884.053787  10280.655271      0.027023                    
P  8   6308.606815 -24853.917655   6155.055674    -56.308721                    
V  8   2214.536973   8127.832767  30770.210616     -0.014700                    
P  9  -8455.556134 -20643.228647  14320.437704   -354.034992                    
V  9   3821.512614 -18077.791063 -23717.945931      0.016191                    
P 10  23338.473929  10698.554386  -7234.276766   -321.326522                    
V 10   6314.561320   7134.251183  30041.431724     -0.105131                    
P 11 -22841.276907  12551.031985   5088.264088    -87.949048                    
V 11  -7012.464564   -231.101495 -30903.856345      0.123004                    
P 12   3188.523163  19153.262265 -18446.707944   -171.488452                    
V 12 -18282.984443 -13695.885868 -17505.185959     -0.057140                    
P 13 -13006.851162  19812.318627  11670.161711    262.219687                    
V 13   1270.508791 -15225.960124  27069.038300      0.061985                    
P 14 -22847.803740 -11769.636578  -6848.106713    -84.227058                    
V 14  -5072.844906  -7594.057281  29932.487495     -0.045031                    
P 15  -3150.084159  25635.432540   5011.712071    -83.594829                    
V 15  -4158.729667  -6862.728461  30385.874903      0.028938                    
P 16  13249.281546  -7909.598717  21403.893518   -469.825970                    
V 16  20740.658528  18397.761259  -5512.344851     -0.048763                    
P 17 -13503.735880  -6574.237802 -21469.288360    575.507159                    
V 17   5014.944686 -27802.761516   5300.507928      0.049542                    
P 18  13903.324602   9415.902340  20600.053200    239.518651                    
V 18 -23711.882131  10958.339088  10894.013323     -0.081074                    
P 19 -15389.854774   1966.409512 -21793.840945    119.338763                    
V 19   5115.825421 -26544.957702  -6258.282792      0.049875                    
P 20 -17280.265117   6667.900723  18945.992418    516.690816                    
V 20 -20776.787483 -12543.446691 -14779.980928     -0.001756                    
P 21  12510.637676 -17959.249199 -13907.473089    158.084330                    
V 21  18087.493840  -6686.799876  24394.165587      0.006223                    
P 22  15505.622783  -5905.907573 -20299.592579    214.046253                    
V 22  -3829.705862  26471.050513 -10604.217737      0.056606                    
P 23  20307.468187  16821.155050   3571.996027      1.058160                    
V 23  -5154.645966   -488.767523  31411.391866     -0.035200                    
P 24  -6193.421834  18573.210398 -18057.205053    274.353970                    
V 24 -20855.967927   8925.301650  17017.713463     -0.019764                    
P 25  15323.991941  19591.694145  -9989.358037    285.961265                    
V 25 -11265.722870  -5203.673418 -28017.549077      0.053516                    
P 26  21827.797185    805.130485  15238.130238    183.488459                    
V 26  15075.035251  12478.978982 -21825.724438      0.032033                    
P 27  12222.031552 -17556.077312  15285.007380    120.348996                    
V 27     16.105528  19997.592206  23050.914694      0.161729                    
P 28 -21404.142111  -6190.524168 -13762.530287    399.807248                    
V 28 -12364.487689 -13859.570951  24765.813249     -0.082153                    
P 29   4647.742585  22732.074021  12831.592433   -480.576611                    
V 29  -4632.773855  15782.626830 -26242.308993     -0.046928                    
P 30 -21306.049264  -3492.877280  15695.680939   -513.558077                    
V 30  17302.940355  -9853.120697  21145.467431     -0.023287                    
P 31  25389.252758  -5486.913965  -6748.747511   -164.868564                    
V 31  -6704.696896   5480.846081 -29777.942296     -0.017896                    
P 32  15119.700234   1637.085450 -21649.116854    -68.261221                    
V 32  -2555.802472  27683.028697    120.740382     -0.067650                    
EOF
